FLOCK 2K-34             
1 42878U 17042BF  17345.71050664  .00003291  00000-0  98735-4 0  9993
2 42878  96.9944 246.8323 0014638  63.5838 296.6907 15.35024845 22869
